NORAD_CAT_ID,OBJECT_NAME,OBJECT_TYPE,EPOCH,MEAN_MOTION,ECCENTRICITY,INCLINATION,RA_OF_ASC_NODE,ARG_OF_PERICENTER,MEAN_ANOMALY,BSTAR,MEAN_MOTION_DOT,MEAN_MOTION_DDOT,TLE_LINE0,TLE_LINE1,TLE_LINE2,SEMIMAJOR_AXIS,PERIOD,APOGEE,PERIGEE,DECAYED
49421.0,STARLINK-3112,PAYLOAD,2022-04-20 22:00:00,15.08823467,0.0002489,53.2161,118.2316,41.6242,103.1311,0.0027427,0.00043614,0.0,0 STARLINK-3112,1 49421U 21104P   22110.91667824  .00043614  00000-0  27427-2 0  9999,2 49421  53.2161 118.2316 0002489  41.6242 103.1311 15.08823467 25522,6917.931,95.439,541.518,538.0740000000002,0.0
49421.0,STARLINK-3112,PAYLOAD,2022-04-21 14:00:01,15.0887266,0.0002698,53.2165,115.2404,38.959,128.9898,-0.0029966,-0.0004771,0.0,0 STARLINK-3112,1 49421U 21104P   22111.58334491 -.00047710  00000-0 -29966-2 0  9997,2 49421  53.2165 115.2404 0002698  38.9590 128.9898 15.08872660  3562,6917.781,95.435,541.512,537.779,0.0
49421.0,STARLINK-3112,PAYLOAD,2022-04-21 22:00:00,15.08817341,0.0002486,53.2169,113.7425,42.0179,137.5516,0.0027011999999999,0.00042938,0.0,0 STARLINK-3112,1 49421U 21104P   22111.91667824  .00042938  00000-0  27012-2 0  9998,2 49421  53.2169 113.7425 0002486  42.0179 137.5516 15.08817341  3597,6917.95,95.439,541.534,538.095,0.0
49421.0,STARLINK-3112,PAYLOAD,2022-04-22 14:00:01,15.08867735,0.0002662,53.217,110.7514,39.3849,163.3583,-0.0030787,-0.00048993,0.0,0 STARLINK-3112,1 49421U 21104P   22112.58334491 -.00048993  00000-0 -30787-2 0  9995,2 49421  53.2170 110.7514 0002662  39.3849 163.3583 15.08867735 25771,6917.795999999999,95.436,541.502,537.819,0.0
49421.0,STARLINK-3112,PAYLOAD,2022-04-23 06:00:02,15.0883359,0.0002622,53.2174,107.759,40.4952,185.5022,-0.00060714,-9.937e-05,0.0,0 STARLINK-3112,1 49421U 21104P   22113.25002315 -.00009937  00000-0 -60714-3 0  9996,2 49421  53.2174 107.7590 0002622  40.4952 185.5022 15.08833590 25876,6917.9,95.438,541.5790000000002,537.951,0.0
49421.0,STARLINK-3112,PAYLOAD,2022-04-23 14:00:01,15.08851613,0.0002595,53.2171,106.2624,39.9594,197.5554,-0.0013369,-0.0002151,0.0,0 STARLINK-3112,1 49421U 21104P   22113.58334491 -.00021510  00000-0 -13369-2 0  9999,2 49421  53.2171 106.2624 0002595  39.9594 197.5554 15.08851613  3560,6917.845,95.437,541.505,537.915,0.0
49421.0,STARLINK-3112,PAYLOAD,2022-04-23 22:00:00,15.08841156,0.0002403,53.2173,104.7648,44.1834,204.9323,0.00025573,3.784e-05,0.0,0 STARLINK-3112,1 49421U 21104P   22113.91667824  .00003784  00000-0  25573-3 0  9997,2 49421  53.2173 104.7648 0002403  44.1834 204.9323 15.08841156 25971,6917.877,95.437,541.404,538.0790000000002,0.0
49421.0,STARLINK-3112,PAYLOAD,2022-04-24 14:00:01,15.08847767,0.0002518,53.2166,101.7734,40.7315,231.5614,-0.0016574,-0.00026576,0.0,0 STARLINK-3112,1 49421U 21104P   22114.58334491 -.00026576  00000-0 -16574-2 0  9998,2 49421  53.2166 101.7734 0002518  40.7315 231.5614 15.08847767  3596,6917.857,95.437,541.464,537.98,0.0
49421.0,STARLINK-3112,PAYLOAD,2022-04-24 22:00:00,15.08825855,0.0002382,53.2167,100.2758,45.7169,238.1702,0.0023874,0.00037898,0.0,0 STARLINK-3112,1 49421U 21104P   22114.91667824  .00037898  00000-0  23874-2 0  9992,2 49421  53.2167 100.2758 0002382  45.7169 238.1702 15.08825855 26127,6917.924,95.438,541.436,538.141,0.0
49421.0,STARLINK-3112,PAYLOAD,2022-04-25 14:00:01,15.08860005,0.0002472,53.2162,97.2842,41.7755,265.3041,-0.0035659,-0.00056628,0.0,0 STARLINK-3112,1 49421U 21104P   22115.58334491 -.00056628  00000-0 -35659-2 0  9995,2 49421  53.2162  97.2842 0002472  41.7755 265.3041 15.08860005 26223,6917.819,95.436,541.394,537.974,0.0
49421.0,STARLINK-3112,PAYLOAD,2022-04-25 22:00:00,15.08821447,0.0002351,53.2163,95.7866,46.3841,272.2912,0.0022929,0.00036374,0.0,0 STARLINK-3112,1 49421U 21104P   22115.91667824  .00036374  00000-0  22929-2 0  9991,2 49421  53.2163  95.7866 0002351  46.3841 272.2912 15.08821447  3615,6917.937,95.439,541.429,538.1759999999998,0.0
49421.0,STARLINK-3112,PAYLOAD,2022-04-26 06:00:00,15.08835336,0.0002555,53.2163,94.2921,43.2265,287.0391,0.00040093,6.098e-05,0.0,0 STARLINK-3112,1 49421U 21104P   22116.25001157  .00006098  00000-0  40093-3 0  9993,2 49421  53.2163  94.2921 0002555  43.2265 287.0391 15.08835336 26323,6917.895,95.438,541.5269999999998,537.992,0.0
49421.0,STARLINK-3112,PAYLOAD,2022-04-26 14:00:01,15.08874904,0.0002455,53.2159,92.7947,42.29,299.6295,-0.0046165,-0.00073089,0.0,0 STARLINK-3112,1 49421U 21104P   22116.58335648 -.00073089  00000-0 -46165-2 0  9995,2 49421  53.2159  92.7947 0002455  42.2900 299.6295 15.08874904  3593,6917.774,95.435,541.337,537.94,0.0
49421.0,STARLINK-3112,PAYLOAD,2022-04-26 22:00:00,15.08821081,0.0002338,53.2162,91.2973,46.2651,307.1958,0.0021608,0.00034252,0.0,0 STARLINK-3112,1 49421U 21104P   22116.91667824  .00034252  00000-0  21608-2 0  9998,2 49421  53.2162  91.2973 0002338  46.2651 307.1958 15.08821081  3563,6917.938,95.439,541.4209999999998,538.186,0.0
49421.0,STARLINK-3112,PAYLOAD,2022-04-27 14:00:01,15.08862832,0.0002438,53.2162,88.3052,42.0288,334.6723,-0.0043323,-0.00068627,0.0,0 STARLINK-3112,1 49421U 21104P   22117.58335648 -.00068627  00000-0 -43323-2 0  9991,2 49421  53.2162  88.3052 0002438  42.0288 334.6723 15.08862832 26535,6917.811,95.436,541.362,537.989,0.0
49421.0,STARLINK-3112,PAYLOAD,2022-04-27 22:00:00,15.08823781,0.0002337,53.2166,86.8079,45.971,342.2616,0.0019547,0.00030945,0.0,0 STARLINK-3112,1 49421U 21104P   22117.91667824  .00030945  00000-0  19547-2 0  9993,2 49421  53.2166  86.8079 0002337  45.9710 342.2616 15.08823781 26582,6917.93,95.439,541.4119999999998,538.178,0.0
49421.0,STARLINK-3112,PAYLOAD,2022-04-28 14:00:01,15.08874803,0.0002393,53.2169,83.8156,42.2508,9.1819,-0.0034333,-0.0005457,0.0,0 STARLINK-3112,1 49421U 21104P   22118.58334491 -.00054570  00000-0 -34333-2 0  9990,2 49421  53.2169  83.8156 0002393  42.2508   9.1819 15.08874803  3574,6917.774,95.435,541.294,537.984,0.0
49421.0,STARLINK-3112,PAYLOAD,2022-04-28 22:00:01,15.08860685,0.000227,53.2173,82.3186,44.6281,18.4744,-0.0013038,-0.00020991,0.0,0 STARLINK-3112,1 49421U 21104P   22118.91668981 -.00020991  00000-0 -13038-2 0  9990,2 49421  53.2173  82.3186 0002270  44.6281  18.4744 15.08860685 26730,6917.816999999999,95.436,541.253,538.112,0.0
49421.0,STARLINK-3112,PAYLOAD,2022-04-29 14:00:01,15.088398499999998,0.0002212,53.2177,79.3264,39.3302,46.9162,-0.0016397,-0.0002628999999999,0.0,0 STARLINK-3112,1 49421U 21104P   22119.58334491 -.00026290  00000-0 -16397-2 0  9999,2 49421  53.2177  79.3264 0002212  39.3302  46.9162 15.08839850  3575,6917.880999999999,95.438,541.276,538.216,0.0
49421.0,STARLINK-3112,PAYLOAD,2022-04-29 22:00:00,15.08823764,0.0002099,53.218,77.8296,41.444,56.3826,-5.9653e-05,-1.237e-05,0.0,0 STARLINK-3112,1 49421U 21104P   22119.91667824 -.00001237  00000-0 -59653-4 0  9993,2 49421  53.2180  77.8296 0002099  41.4440  56.3826 15.08823764  3576,6917.93,95.439,541.247,538.3430000000002,0.0
49421.0,STARLINK-3112,PAYLOAD,2022-04-30 06:00:00,15.08807766,0.0002267,53.2181,76.3351,36.9948,72.4095,0.0020582,0.00032592,0.0,0 STARLINK-3112,1 49421U 21104P   22120.25001157  .00032592  00000-0  20582-2 0  9996,2 49421  53.2181  76.3351 0002267  36.9948  72.4095 15.08807766 26938,6917.979,95.44,541.4119999999998,538.276,0.0
49421.0,STARLINK-3112,PAYLOAD,2022-04-30 14:00:01,15.08841717,0.0002071,53.2182,74.8375,37.4991,83.4795,-0.0025979,-0.000414,0.0,0 STARLINK-3112,1 49421U 21104P   22120.58334491 -.00041400  00000-0 -25979-2 0  9997,2 49421  53.2182  74.8375 0002071  37.4991  83.4795 15.08841717  3573,6917.875,95.437,541.173,538.307,0.0
49421.0,STARLINK-3112,PAYLOAD,2022-04-30 22:00:00,15.08825405,0.0001995,53.2185,73.34100000000002,40.1128,92.4373,0.00075999,0.00011823,0.0,0 STARLINK-3112,1 49421U 21104P   22120.91667824  .00011823  00000-0  75999-3 0  9995,2 49421  53.2185  73.3410 0001995  40.1128  92.4373 15.08825405 27032,6917.925,95.438,541.17,538.41,0.0
49421.0,STARLINK-3112,PAYLOAD,2022-05-01 14:00:01,15.08853334,0.0001974,53.2183,70.3488,37.6449,118.0733,-0.0028387,-0.000452,0.0,0 STARLINK-3112,1 49421U 21104P   22121.58334491 -.00045200  00000-0 -28387-2 0  9996,2 49421  53.2183  70.3488 0001974  37.6449 118.0733 15.08853334  3587,6917.84,95.437,541.07,538.339,0.0
49421.0,STARLINK-3112,PAYLOAD,2022-05-01 22:00:01,15.0883826,0.0001908,53.2186,68.8525,40.1307,127.2384,0.00029807,4.459e-05,0.0,0 STARLINK-3112,1 49421U 21104P   22121.91668981  .00004459  00000-0  29807-3 0  9995,2 49421  53.2186  68.8525 0001908  40.1307 127.2384 15.08838260 27180,6917.886,95.438,541.071,538.431,0.0
49421.0,STARLINK-3112,PAYLOAD,2022-05-02 14:00:01,15.08834736,0.0002012,53.2182,65.8602,40.9069,149.582,-0.0015647,-0.00025101,0.0,0 STARLINK-3112,1 49421U 21104P   22122.58334491 -.00025101  00000-0 -15647-2 0  9990,2 49421  53.2182  65.8602 0002012  40.9069 149.5820 15.08834736  3606,6917.896,95.438,541.153,538.37,0.0
49421.0,STARLINK-3112,PAYLOAD,2022-05-02 22:00:01,15.08836274,0.0002044,53.2184,64.3642,45.382,156.7409,-0.00027329,-4.635e-05,0.0,0 STARLINK-3112,1 49421U 21104P   22122.91668981 -.00004635  00000-0 -27329-3 0  9991,2 49421  53.2184  64.3642 0002044  45.3820 156.7409 15.08836274 27333,6917.892,95.438,541.1709999999998,538.3430000000002,0.0
49421.0,STARLINK-3112,PAYLOAD,2022-05-03 14:00:01,15.0883967,0.0002072,53.218,61.3716,43.82899999999999,181.4076,0.00064475,9.988e-05,0.0,0 STARLINK-3112,1 49421U 21104P   22123.58334491  .00009988  00000-0  64475-3 0  9998,2 49421  53.2180  61.3716 0002072  43.8290 181.4076 15.08839670  3560,6917.880999999999,95.438,541.18,538.313,0.0
49421.0,STARLINK-3112,PAYLOAD,2022-05-03 22:00:00,15.0887039,0.0002058,53.2181,59.8757,46.1635,190.6671,-0.0031347,-0.00049874,0.0,0 STARLINK-3112,1 49421U 21104P   22123.91667824 -.00049874  00000-0 -31347-2 0  9995,2 49421  53.2181  59.8757 0002058  46.1635 190.6671 15.08870390 27485,6917.788000000001,95.436,541.076,538.229,0.0
